[
  {
    "httpRequest": {
      "method": "GET",
      "path": "/api/data/metar"
    },
    "httpResponse": {
      "statusCode": 200,
      "headers": {
        "Content-Type": ["text/plain; charset=utf-8"]
      },
      "body": "METAR EDDF 081200Z 24008KT 9999 FEW035 22/12 Q1018 NOSIG\nMETAR EPWA 081200Z 20006KT 9999 SCT040 24/13 Q1016 NOSIG\nMETAR KJFK 081151Z 18010KT 10SM FEW050 27/18 A2998 RMK AO2\nMETAR LFPG 081200Z 23007KT 9999 BKN038 21/14 Q1017 NOSIG\nMETAR CYYR 081200Z 09005KT 15SM SCT060 14/07 A2990\nMETAR BIKF 081200Z 11015KT 9999 FEW025 09/05 Q1005\nMETAR CYYT 081200Z 14012KT 12SM OVC070 12/09 A2985\nMETAR KPHL 081154Z 20008KT 10SM SCT045 26/17 A2999\nMETAR KBOS 081154Z 21009KT 10SM FEW040 24/16 A3000\nMETAR EDDW 081200Z 25010KT 9999 BKN030 19/12 Q1016 NOSIG"
    }
  },
  {
    "httpRequest": {
      "method": "GET",
      "path": "/api/data/taf"
    },
    "httpResponse": {
      "statusCode": 200,
      "headers": {
        "Content-Type": ["text/plain; charset=utf-8"]
      },
      "body": "TAF EDDF 081100Z 0812/0918 24010KT 9999 FEW035 BECMG 0815/0817 27012KT\nTAF EPWA 081100Z 0812/0918 20008KT 9999 SCT040 BECMG 0900/0902 24010KT\nTAF KJFK 081120Z 0812/0918 18012KT P6SM FEW050 FM090000 21008KT P6SM SCT060\nTAF LFPG 081100Z 0812/0918 23009KT 9999 BKN038\nTAF CYYR 081140Z 0812/0918 09006KT P6SM SCT060\nTAF BIKF 081100Z 0812/0918 11018KT 9999 FEW025\nTAF CYYT 081140Z 0812/0918 14014KT P6SM OVC070\nTAF KPHL 081120Z 0812/0918 20010KT P6SM SCT045\nTAF KBOS 081120Z 0812/0918 21010KT P6SM FEW040\nTAF EDDW 081100Z 0812/0918 25012KT 9999 BKN030"
    }
  }
]
